OBJECT_NAME,OBJECT_ID,EPOCH,MEAN_MOTION,ECCENTRICITY,INCLINATION,RA_OF_ASC_NODE,ARG_OF_PERICENTER,MEAN_ANOMALY,EPHEMERIS_TYPE,CLASSIFICATION_TYPE,NORAD_CAT_ID,ELEMENT_SET_NO,REV_AT_EPOCH,BSTAR,MEAN_MOTION_DOT,MEAN_MOTION_DDOT
STARLINK-33648,2025-063J,2026-05-29T01:41:37.663584,15.30211709,.0000914,53.1607,39.2814,90.6408,269.4698,0,U,63371,999,6706,.86429E-3,.25335E-3,0
STARLINK-33614,2025-063K,2026-05-29T01:55:53.556672,15.30233866,.0001186,53.1616,36.4993,98.8121,261.3014,0,U,63372,999,6710,.13498E-2,.39875E-3,0
STARLINK-33617,2025-063L,2026-05-29T00:15:10.651680,15.32752097,.0008193,53.1611,36.7694,206.8014,153.2566,0,U,63373,999,6704,.70566E-1,.2522534E-1,0
STARLINK-33618,2025-063M,2026-05-29T04:00:03.998880,15.34349903,.0001368,53.1598,35.8831,78.4867,145.2445,0,U,63374,999,590,.18796E-2,.63567E-3,0
STARLINK-33621,2025-063N,2026-05-29T04:00:03.998880,15.33632758,.0001731,53.1602,35.9514,12.5194,177.2090,0,U,63375,999,590,.20611E-1,.728998E-2,0
STARLINK-33539,2025-063P,2026-05-29T03:09:28.086912,15.30207300,.0001169,53.1597,48.8708,114.8668,245.2454,0,U,63376,999,6688,.61811E-3,.17996E-3,0
STARLINK-33634,2025-063Q,2026-05-29T02:28:34.341600,15.30207814,.0001179,53.1599,38.7686,101.6988,258.4145,0,U,63377,999,6707,.14011E-2,.41378E-3,0
STARLINK-33640,2025-063R,2026-05-29T02:36:10.736640,15.30210956,.0000301,53.1599,38.8000,105.8018,254.3016,0,U,63378,999,6707,.13892E-2,.41027E-3,0
STARLINK-33636,2025-063S,2026-05-29T04:00:03.998880,15.36504376,.000147,53.1595,37.9467,70.7907,193.0537,0,U,63379,999,591,.52005E-1,.2087493E-1,0
STARLINK-33653,2025-063T,2026-05-29T02:51:21.897216,15.30210231,.0000781,53.1590,38.8701,101.2316,258.8773,0,U,63380,999,6702,.8156E-3,.23882E-3,0
STARLINK-33643,2025-063U,2026-05-28T20:27:33.395040,15.30206211,.0001253,53.1595,40.0512,101.0249,259.0893,0,U,63381,999,6703,.82909E-3,.24281E-3,0
STARLINK-33748,2025-063W,2026-05-29T01:20:23.292096,15.30209456,.0001198,53.1612,49.8324,85.6606,274.4532,0,U,63383,999,6691,.95555E-3,.28057E-3,0
STARLINK-33658,2025-063X,2026-05-28T23:18:45.484128,15.35409729,.0001045,53.1602,37.2356,81.8433,278.2689,0,U,63384,999,6708,.77879E-3,.2689E-3,0
STARLINK-33616,2025-063Y,2026-05-29T02:51:24.022656,15.30212447,.0000972,53.1609,49.5249,83.3307,276.7805,0,U,63385,999,6687,.96352E-3,.28297E-3,0
STARLINK-33571,2025-063Z,2026-05-29T02:04:27.902784,15.34411056,.0000983,53.1599,48.5865,86.5907,273.5208,0,U,63386,999,6688,.5847E-3,.19437E-3,0
STARLINK-33533,2025-063AA,2026-05-28T22:53:52.379808,15.30203484,.0001232,53.1615,37.1302,94.5665,265.5476,0,U,63387,999,6703,.8367E-3,.24506E-3,0
STARLINK-33629,2025-063AB,2026-05-29T04:00:03.998880,15.34346793,.0001027,53.1608,36.1810,79.2911,353.2269,0,U,63388,999,591,.18583E-2,.62829E-3,0
STARLINK-33656,2025-063AC,2026-05-28T23:02:33.556704,15.31720467,.0001149,53.1616,39.3004,71.8760,288.2366,0,U,63389,999,6705,.11425E-2,.35277E-3,0
LEMUR-2-BALTO,2025-052BH,2026-05-29T04:11:24.734112,14.99856511,.0005568,97.6889,43.0129,104.5604,255.6237,0,U,63395,999,6591,.61001E-3,.7505E-4,0
TJS-16,2025-064A,2026-05-28T16:19:38.757216,1.00272752,.000403,1.0495,81.5573,290.9672,279.1814,0,U,63397,999,419,0,-.96E-6,0
STARLINK-33531,2025-065A,2026-05-29T00:03:21.019104,15.27597120,.0000358,42.9997,13.4414,18.9186,341.1679,0,U,63399,999,6512,.11933E-2,.32738E-3,0
STARLINK-33652,2025-065B,2026-05-28T23:26:20.084640,15.27594578,.0001346,42.9983,13.2454,266.3256,93.7441,0,U,63400,999,6512,.135E-2,.37091E-3,0
STARLINK-33707,2025-065C,2026-05-28T23:57:47.782080,15.27559721,.0000699,43.0008,13.4146,287.7657,72.3119,0,U,63401,999,6512,.77325E-3,.21064E-3,0
STARLINK-33668,2025-065D,2026-05-28T08:42:07.942752,15.27574711,.0001555,43.0033,17.2387,281.6071,78.4606,0,U,63402,999,6502,.72298E-3,.19683E-3,0
STARLINK-33676,2025-065E,2026-05-28T23:55:56.627616,15.27591781,.0001491,43.0029,13.3978,270.4410,89.6271,0,U,63403,999,6512,.1223E-2,.33559E-3,0
STARLINK-33711,2025-065F,2026-05-29T00:58:38.519040,15.27595965,.0000738,43.0025,12.8667,348.5712,11.5123,0,U,63404,999,6513,.91339E-3,.2497E-3,0
STARLINK-33708,2025-065G,2026-05-29T00:01:29.176032,15.27605665,.0002331,42.9998,13.4272,245.8807,114.1801,0,U,63405,999,6512,.12904E-2,.35446E-3,0
STARLINK-33690,2025-065H,2026-05-29T00:51:55.335168,15.27600861,.0003224,42.9974,9.3781,256.0248,104.0245,0,U,63406,999,6517,.12463E-2,.34218E-3,0
STARLINK-33694,2025-065J,2026-05-28T22:16:13.666080,15.27608044,.0001045,43.0023,13.7296,272.4738,87.5994,0,U,63407,999,6511,.15049E-2,.41416E-3,0
STARLINK-33692,2025-065K,2026-05-29T00:52:35.385888,15.27603133,.0003612,43.0093,17.1396,243.4717,116.5765,0,U,63408,999,6508,.10105E-2,.27673E-3,0
