STARLINK-33648          
1 63371U 25063J   26149.07057481  .00025335  00000+0  86429-3 0  9999
2 63371  53.1607  39.2814 0000914  90.6408 269.4698 15.30211709 67064
STARLINK-33614          
1 63372U 25063K   26149.08048098  .00039875  00000+0  13498-2 0  9994
2 63372  53.1616  36.4993 0001186  98.8121 261.3014 15.30233866 67102
STARLINK-33617          
1 63373U 25063L   26149.01053995  .02522534  00000+0  70566-1 0  9999
2 63373  53.1611  36.7694 0008193 206.8014 153.2566 15.32752097 67044
STARLINK-33618          
1 63374U 25063M   26149.16671295  .00063567  00000+0  18796-2 0  9997
2 63374  53.1598  35.8831 0001368  78.4867 145.2445 15.34349903  5902
STARLINK-33621          
1 63375U 25063N   26149.16671295  .00728998  00000+0  20611-1 0  9992
2 63375  53.1602  35.9514 0001731  12.5194 177.2090 15.33632758  5907
STARLINK-33539          
1 63376U 25063P   26149.13157508  .00017996  00000+0  61811-3 0  9994
2 63376  53.1597  48.8708 0001169 114.8668 245.2454 15.30207300 66888
STARLINK-33634          
1 63377U 25063Q   26149.10317525  .00041378  00000+0  14011-2 0  9999
2 63377  53.1599  38.7686 0001179 101.6988 258.4145 15.30207814 67079
STARLINK-33640          
1 63378U 25063R   26149.10845760  .00041027  00000+0  13892-2 0  9994
2 63378  53.1599  38.8000 0000301 105.8018 254.3016 15.30210956 67070
STARLINK-33636          
1 63379U 25063S   26149.16671295  .02087493  00000+0  52005-1 0  9998
2 63379  53.1595  37.9467 0001470  70.7907 193.0537 15.36504376  5919
STARLINK-33653          
1 63380U 25063T   26149.11900344  .00023882  00000+0  81560-3 0  9995
2 63380  53.1590  38.8701 0000781 101.2316 258.8773 15.30210231 67025
STARLINK-33643          
1 63381U 25063U   26148.85246985  .00024281  00000+0  82909-3 0  9992
2 63381  53.1595  40.0512 0001253 101.0249 259.0893 15.30206211 67034
STARLINK-33748          
1 63383U 25063W   26149.05582514  .00028057  00000+0  95555-3 0  9994
2 63383  53.1612  49.8324 0001198  85.6606 274.4532 15.30209456 66917
STARLINK-33658          
1 63384U 25063X   26148.97135977  .00026890  00000+0  77879-3 0  9994
2 63384  53.1602  37.2356 0001045  81.8433 278.2689 15.35409729 67084
STARLINK-33616          
1 63385U 25063Y   26149.11902804  .00028297  00000+0  96352-3 0  9993
2 63385  53.1609  49.5249 0000972  83.3307 276.7805 15.30212447 66877
STARLINK-33571          
1 63386U 25063Z   26149.08643406  .00019437  00000+0  58470-3 0  9995
2 63386  53.1599  48.5865 0000983  86.5907 273.5208 15.34411056 66886
STARLINK-33533          
1 63387U 25063AA  26148.95407847  .00024506  00000+0  83670-3 0  9991
2 63387  53.1615  37.1302 0001232  94.5665 265.5476 15.30203484 67030
STARLINK-33629          
1 63388U 25063AB  26149.16671295  .00062829  00000+0  18583-2 0  9996
2 63388  53.1608  36.1810 0001027  79.2911 353.2269 15.34346793  5911
STARLINK-33656          
1 63389U 25063AC  26148.96011061  .00035277  00000+0  11425-2 0  9998
2 63389  53.1616  39.3004 0001149  71.8760 288.2366 15.31720467 67055
LEMUR-2-BALTO           
1 63395U 25052BH  26149.17459183  .00007505  00000+0  61001-3 0  9997
2 63395  97.6889  43.0129 0005568 104.5604 255.6237 14.99856511 65918
TJS-16                  
1 63397U 25064A   26148.68030969 -.00000096  00000+0  00000+0 0  9991
2 63397   1.0495  81.5573 0004030 290.9672 279.1814  1.00272752  4192
STARLINK-33531          
1 63399U 25065A   26149.00232661  .00032738  00000+0  11933-2 0  9991
2 63399  42.9997  13.4414 0000358  18.9186 341.1679 15.27597120 65122
STARLINK-33652          
1 63400U 25065B   26148.97662135  .00037091  00000+0  13500-2 0  9991
2 63400  42.9983  13.2454 0001346 266.3256  93.7441 15.27594578 65128
STARLINK-33707          
1 63401U 25065C   26148.99846970  .00021064  00000+0  77325-3 0  9994
2 63401  43.0008  13.4146 0000699 287.7657  72.3119 15.27559721 65127
STARLINK-33668          
1 63402U 25065D   26148.36259193  .00019683  00000+0  72298-3 0  9999
2 63402  43.0033  17.2387 0001555 281.6071  78.4606 15.27574711 65023
STARLINK-33676          
1 63403U 25065E   26148.99718319  .00033559  00000+0  12230-2 0  9996
2 63403  43.0029  13.3978 0001491 270.4410  89.6271 15.27591781 65123
STARLINK-33711          
1 63404U 25065F   26149.04072360  .00024970  00000+0  91339-3 0  9998
2 63404  43.0025  12.8667 0000738 348.5712  11.5123 15.27595965 65133
STARLINK-33708          
1 63405U 25065G   26149.00103213  .00035446  00000+0  12904-2 0  9997
2 63405  42.9998  13.4272 0002331 245.8807 114.1801 15.27605665 65126
STARLINK-33690          
1 63406U 25065H   26149.03605712  .00034218  00000+0  12463-2 0  9998
2 63406  42.9974   9.3781 0003224 256.0248 104.0245 15.27600861 65173
STARLINK-33694          
1 63407U 25065J   26148.92793595  .00041416  00000+0  15049-2 0  9994
2 63407  43.0023  13.7296 0001045 272.4738  87.5994 15.27608044 65117
STARLINK-33692          
1 63408U 25065K   26149.03652067  .00027673  00000+0  10105-2 0  9993
2 63408  43.0093  17.1396 0003612 243.4717 116.5765 15.27603133 65080
